[{"OBJECT_NAME":"COSMOS 1408 DEB","OBJECT_ID":"1982-092RU","EPOCH":"2026-03-06T12:37:10.257024","MEAN_MOTION":15.46733551,"ECCENTRICITY":0.00135895,"INCLINATION":82.5661,"RA_OF_ASC_NODE":332.5683,"ARG_OF_PERICENTER":269.463,"MEAN_ANOMALY":90.5062,"EPHEMERIS_TYPE":0,"CLASSIFICATION_TYPE":"U","NORAD_CAT_ID":50032,"ELEMENT_SET_NO":999,"REV_AT_EPOCH":23898,"BSTAR":0.00013251232,"MEAN_MOTION_DOT":6.689e-5,"MEAN_MOTION_DDOT":0},{"OBJECT_NAME":"COSMOS 1408 DEB","OBJECT_ID":"1982-092SW","EPOCH":"2026-03-06T04:42:19.462176","MEAN_MOTION":15.70889234,"ECCENTRICITY":0.00148553,"INCLINATION":82.6135,"RA_OF_ASC_NODE":341.5706,"ARG_OF_PERICENTER":135.766,"MEAN_ANOMALY":224.4793,"EPHEMERIS_TYPE":0,"CLASSIFICATION_TYPE":"U","NORAD_CAT_ID":50058,"ELEMENT_SET_NO":999,"REV_AT_EPOCH":24111,"BSTAR":0.0003880124,"MEAN_MOTION_DOT":0.00048832,"MEAN_MOTION_DDOT":0},{"OBJECT_NAME":"COSMOS 1408 DEB","OBJECT_ID":"1982-092ADS","EPOCH":"2026-03-06T13:38:11.824224","MEAN_MOTION":15.33120352,"ECCENTRICITY":0.01254384,"INCLINATION":82.1952,"RA_OF_ASC_NODE":127.989,"ARG_OF_PERICENTER":265.3889,"MEAN_ANOMALY":93.3016,"EPHEMERIS_TYPE":0,"CLASSIFICATION_TYPE":"U","NORAD_CAT_ID":50404,"ELEMENT_SET_NO":999,"REV_AT_EPOCH":22469,"BSTAR":0.0039189262,"MEAN_MOTION_DOT":0.00164128,"MEAN_MOTION_DDOT":0},{"OBJECT_NAME":"COSMOS 1408 DEB","OBJECT_ID":"1982-092ALR","EPOCH":"2026-03-06T11:48:56.032416","MEAN_MOTION":15.62166632,"ECCENTRICITY":0.00230104,"INCLINATION":82.5724,"RA_OF_ASC_NODE":346.6388,"ARG_OF_PERICENTER":195.0449,"MEAN_ANOMALY":165.0127,"EPHEMERIS_TYPE":0,"CLASSIFICATION_TYPE":"U","NORAD_CAT_ID":50621,"ELEMENT_SET_NO":999,"REV_AT_EPOCH":23555,"BSTAR":0.00039800059,"MEAN_MOTION_DOT":0.00035512,"MEAN_MOTION_DDOT":0}]
