COSMOS 1408 DEB         
1 50032U 82092RU  26065.52581316  .00006689  00000+0  13251-3 0  9994
2 50032  82.5661 332.5683 0013589 269.4630  90.5062 15.46733551238988
COSMOS 1408 DEB         
1 50058U 82092SW  26065.19605859  .00048832  00000+0  38801-3 0  9998
2 50058  82.6135 341.5706 0014855 135.7660 224.4793 15.70889234241119
COSMOS 1408 DEB         
1 50404U 82092ADS 26065.56819241  .00164128  00000+0  39189-2 0  9992
2 50404  82.1952 127.9890 0125438 265.3889  93.3016 15.33120352224692
COSMOS 1408 DEB         
1 50621U 82092ALR 26065.49231519  .00035512  00000+0  39800-3 0  9996
2 50621  82.5724 346.6388 0023010 195.0449 165.0127 15.62166632235550
